{"type": "FeatureCollection", "features": [ {"type": "Feature", "properties": {"norad_id": 66333, "name": "STARLINK-35400", "group": "last-30-days", "lat": 20.57862518768377, "lon": 69.04385100664598, "alt_km": 412.20774942222306, "timestamp": "2025-12-02T08:59:31.501877+00:00", "meta": {"OBJECT_NAME": "STARLINK-35400", "OBJECT_ID": "2025-253Q", "EPOCH": "2025-12-01T14:18:31.799232", "MEAN_MOTION": 15.50629788, "ECCENTRICITY": 0.00025495, "INCLINATION": 43.0009, "RA_OF_ASC_NODE": 49.8398, "ARG_OF_PERICENTER": 260.7267, "MEAN_ANOMALY": 99.3305, "EPHEMERIS_TYPE": 0, "CLASSIFICATION_TYPE": "U", "NORAD_CAT_ID": 66333, "ELEMENT_SET_NO": 999, "REV_AT_EPOCH": 520, "BSTAR": 0.0015288363, "MEAN_MOTION_DOT": 0.00090561, "MEAN_MOTION_DDOT": 0}, "tle": {"line1": "1 66333U 25253Q   25335.59620138  .00090561  00000+0  15288-2 0  9996", "line2": "2 66333  43.0009  49.8398 0002549 260.7267  99.3305 15.50629788  5207"}}, "geometry": {"type": "Point", "coordinates": [69.04385100664598, 20.57862518768377]}}, {"type": "Feature", "properties": {"norad_id": 66334, "name": "STARLINK-35407", "group": "last-30-days", "lat": 17.0842087758233, "lon": 64.55561007302741, "alt_km": 411.5087614415752, "timestamp": "2025-12-02T08:59:31.501888+00:00", "meta": {"OBJECT_NAME": "STARLINK-35407", "OBJECT_ID": "2025-253R", "EPOCH": "2025-11-30T16:41:25.488960", "MEAN_MOTION": 15.50547998, "ECCENTRICITY": 9.092e-05, "INCLINATION": 43.0003, "RA_OF_ASC_NODE": 55.1243, "ARG_OF_PERICENTER": 295.1018, "MEAN_ANOMALY": 64.9747, "EPHEMERIS_TYPE": 0, "CLASSIFICATION_TYPE": "U", "NORAD_CAT_ID": 66334, "ELEMENT_SET_NO": 999, "REV_AT_EPOCH": 506, "BSTAR": 0.0013875162, "MEAN_MOTION_DOT": 0.00081821, "MEAN_MOTION_DDOT": 0}, "tle": {"line1": "1 66334U 25253R   25334.69543390  .00081821  00000+0  13875-2 0  9990", "line2": "2 66334  43.0003  55.1243 0000909 295.1018  64.9747 15.50547998  5069"}}, "geometry": {"type": "Point", "coordinates": [64.55561007302741, 17.0842087758233]}}, {"type": "Feature", "properties": {"norad_id": 66335, "name": "STARLINK-35417", "group": "last-30-days", "lat": -40.66965436210522, "lon": -21.68475351810057, "alt_km": 446.60775293928054, "timestamp": "2025-12-02T08:59:31.501898+00:00", "meta": {"OBJECT_NAME": "STARLINK-35417", "OBJECT_ID": "2025-253S", "EPOCH": "2025-12-02T04:00:03.998880", "MEAN_MOTION": 15.40633459, "ECCENTRICITY": 0.0001419, "INCLINATION": 43.0007, "RA_OF_ASC_NODE": 46.7379, "ARG_OF_PERICENTER": 254.2359, "MEAN_ANOMALY": 318.0868, "EPHEMERIS_TYPE": 0, "CLASSIFICATION_TYPE": "U", "NORAD_CAT_ID": 66335, "ELEMENT_SET_NO": 999, "REV_AT_EPOCH": 523, "BSTAR": 0.0017881, "MEAN_MOTION_DOT": 0.00074963, "MEAN_MOTION_DDOT": 0}, "tle": {"line1": "1 66335U 25253S   25336.16671295  .00074963  00000+0  17881-2 0  9991", "line2": "2 66335  43.0007  46.7379 0001419 254.2359 318.0868 15.40633459  5234"}}, "geometry": {"type": "Point", "coordinates": [-21.68475351810057, -40.66965436210522]}}, {"type": "Feature", "properties": {"norad_id": 66336, "name": "STARLINK-35404", "group": "last-30-days", "lat": 22.86326150085603, "lon": 72.18014109941058, "alt_km": 411.206350482953, "timestamp": "2025-12-02T08:59:31.501908+00:00", "meta": {"OBJECT_NAME": "STARLINK-35404", "OBJECT_ID": "2025-253T", "EPOCH": "2025-12-01T14:17:33.002304", "MEAN_MOTION": 15.50603343, "ECCENTRICITY": 0.00016041, "INCLINATION": 43.0007, "RA_OF_ASC_NODE": 49.8357, "ARG_OF_PERICENTER": 288.4901, "MEAN_ANOMALY": 71.5784, "EPHEMERIS_TYPE": 0, "CLASSIFICATION_TYPE": "U", "NORAD_CAT_ID": 66336, "ELEMENT_SET_NO": 999, "REV_AT_EPOCH": 520, "BSTAR": 0.0012973649, "MEAN_MOTION_DOT": 0.00076583, "MEAN_MOTION_DDOT": 0}, "tle": {"line1": "1 66336U 25253T   25335.59552086  .00076583  00000+0  12974-2 0  9992", "line2": "2 66336  43.0007  49.8357 0001604 288.4901  71.5784 15.50603343  5208"}}, "geometry": {"type": "Point", "coordinates": [72.18014109941058, 22.86326150085603]}}, {"type": "Feature", "properties": {"norad_id": 66337, "name": "STARLINK-34783", "group": "last-30-days", "lat": -30.524403454109542, "lon": 6.227873440538501, "alt_km": 445.84917928315554, "timestamp": "2025-12-02T08:59:31.501919+00:00", "meta": {"OBJECT_NAME": "STARLINK-34783", "OBJECT_ID": "2025-253U", "EPOCH": "2025-12-02T04:00:03.998880", "MEAN_MOTION": 15.40666059, "ECCENTRICITY": 0.0001784, "INCLINATION": 43.0006, "RA_OF_ASC_NODE": 46.6779, "ARG_OF_PERICENTER": 268.3758, "MEAN_ANOMALY": 328.7093, "EPHEMERIS_TYPE": 0, "CLASSIFICATION_TYPE": "U", "NORAD_CAT_ID": 66337, "ELEMENT_SET_NO": 999, "REV_AT_EPOCH": 527, "BSTAR": 0.0027737, "MEAN_MOTION_DOT": 0.00117227, "MEAN_MOTION_DDOT": 0}, "tle": {"line1": "1 66337U 25253U   25336.16671295  .00117227  00000+0  27737-2 0  9995", "line2": "2 66337  43.0006  46.6779 0001784 268.3758 328.7093 15.40666059  5276"}}, "geometry": {"type": "Point", "coordinates": [6.227873440538501, -30.524403454109542]}}, {"type": "Feature", "properties": {"norad_id": 66338, "name": "STARLINK-35477", "group": "last-30-days", "lat": -42.80573127230787, "lon": -38.103288718504864, "alt_km": 447.1950481582553, "timestamp": "2025-12-02T08:59:31.501930+00:00", "meta": {"OBJECT_NAME": "STARLINK-35477", "OBJECT_ID": "2025-253V", "EPOCH": "2025-12-02T04:00:03.998880", "MEAN_MOTION": 15.40622816, "ECCENTRICITY": 7.43e-05, "INCLINATION": 43.0005, "RA_OF_ASC_NODE": 46.7692, "ARG_OF_PERICENTER": 220.4812, "MEAN_ANOMALY": 339.3866, "EPHEMERIS_TYPE": 0, "CLASSIFICATION_TYPE": "U", "NORAD_CAT_ID": 66338, "ELEMENT_SET_NO": 999, "REV_AT_EPOCH": 532, "BSTAR": 0.0028153, "MEAN_MOTION_DOT": 0.00118843, "MEAN_MOTION_DDOT": 0}, "tle": {"line1": "1 66338U 25253V   25336.16671295  .00118843  00000+0  28153-2 0  9994", "line2": "2 66338  43.0005  46.7692 0000743 220.4812 339.3866 15.40622816  5320"}}, "geometry": {"type": "Point", "coordinates": [-38.103288718504864, -42.80573127230787]}}, {"type": "Feature", "properties": {"norad_id": 66339, "name": "STARLINK-35443", "group": "last-30-days", "lat": 29.438841234160225, "lon": 82.52414373053277, "alt_km": 416.61094173103356, "timestamp": "2025-12-02T08:59:31.501940+00:00", "meta": {"OBJECT_NAME": "STARLINK-35443", "OBJECT_ID": "2025-253W", "EPOCH": "2025-12-02T02:36:26.779392", "MEAN_MOTION": 15.49923699, "ECCENTRICITY": 0.0006693, "INCLINATION": 42.9994, "RA_OF_ASC_NODE": 46.8033, "ARG_OF_PERICENTER": 216.1354, "MEAN_ANOMALY": 143.9055, "EPHEMERIS_TYPE": 0, "CLASSIFICATION_TYPE": "U", "NORAD_CAT_ID": 66339, "ELEMENT_SET_NO": 999, "REV_AT_EPOCH": 528, "BSTAR": 0.001676, "MEAN_MOTION_DOT": 0.00096991, "MEAN_MOTION_DDOT": 0}, "tle": {"line1": "1 66339U 25253W   25336.10864328  .00096991  00000+0  16760-2 0  9990", "line2": "2 66339  42.9994  46.8033 0006693 216.1354 143.9055 15.49923699  5285"}}, "geometry": {"type": "Point", "coordinates": [82.52414373053277, 29.438841234160225]}}, {"type": "Feature", "properties": {"norad_id": 66340, "name": "STARLINK-35218", "group": "last-30-days", "lat": 24.08874820887133, "lon": 73.94224488384354, "alt_km": 411.14819741182873, "timestamp": "2025-12-02T08:59:31.501953+00:00", "meta": {"OBJECT_NAME": "STARLINK-35218", "OBJECT_ID": "2025-253X", "EPOCH": "2025-12-01T14:17:03.181344", "MEAN_MOTION": 15.50618519, "ECCENTRICITY": 0.00019254, "INCLINATION": 43.0003, "RA_OF_ASC_NODE": 49.8326, "ARG_OF_PERICENTER": 277.9087, "MEAN_ANOMALY": 82.1554, "EPHEMERIS_TYPE": 0, "CLASSIFICATION_TYPE": "U", "NORAD_CAT_ID": 66340, "ELEMENT_SET_NO": 999, "REV_AT_EPOCH": 520, "BSTAR": 0.0017664501, "MEAN_MOTION_DOT": 0.00104835, "MEAN_MOTION_DDOT": 0}, "tle": {"line1": "1 66340U 25253X   25335.59517571  .00104835  00000+0  17665-2 0  9991", "line2": "2 66340  43.0003  49.8326 0001925 277.9087  82.1554 15.50618519  5203"}}, "geometry": {"type": "Point", "coordinates": [73.94224488384354, 24.08874820887133]}}, {"type": "Feature", "properties": {"norad_id": 66341, "name": "STARLINK-35522", "group": "last-30-days", "lat": 19.367374915746783, "lon": 67.45356417224433, "alt_km": 411.5760080856644, "timestamp": "2025-12-02T08:59:31.501964+00:00", "meta": {"OBJECT_NAME": "STARLINK-35522", "OBJECT_ID": "2025-253Y", "EPOCH": "2025-12-01T12:46:16.189248", "MEAN_MOTION": 15.50630105, "ECCENTRICITY": 0.0001633, "INCLINATION": 43.0004, "RA_OF_ASC_NODE": 50.2222, "ARG_OF_PERICENTER": 288.493, "MEAN_ANOMALY": 71.5752, "EPHEMERIS_TYPE": 0, "CLASSIFICATION_TYPE": "U", "NORAD_CAT_ID": 66341, "ELEMENT_SET_NO": 999, "REV_AT_EPOCH": 519, "BSTAR": 0.0011951204, "MEAN_MOTION_DOT": 0.00070534, "MEAN_MOTION_DDOT": 0}, "tle": {"line1": "1 66341U 25253Y   25335.53213182  .00070534  00000+0  11951-2 0  9997", "line2": "2 66341  43.0004  50.2222 0001633 288.4930  71.5752 15.50630105  5191"}}, "geometry": {"type": "Point", "coordinates": [67.45356417224433, 19.367374915746783]}}, {"type": "Feature", "properties": {"norad_id": 66342, "name": "STARLINK-35535", "group": "last-30-days", "lat": 9.389477311919524, "lon": 55.54934893604709, "alt_km": 440.1189854441909, "timestamp": "2025-12-02T08:59:31.501974+00:00", "meta": {"OBJECT_NAME": "STARLINK-35535", "OBJECT_ID": "2025-253Z", "EPOCH": "2025-12-02T04:00:03.998880", "MEAN_MOTION": 15.42822212, "ECCENTRICITY": 0.0001275, "INCLINATION": 43.0008, "RA_OF_ASC_NODE": 46.5296, "ARG_OF_PERICENTER": 249.7778, "MEAN_ANOMALY": 48.1751, "EPHEMERIS_TYPE": 0, "CLASSIFICATION_TYPE": "U", "NORAD_CAT_ID": 66342, "ELEMENT_SET_NO": 999, "REV_AT_EPOCH": 523, "BSTAR": -0.064352, "MEAN_MOTION_DOT": -0.02545755, "MEAN_MOTION_DDOT": 0}, "tle": {"line1": "1 66342U 25253Z   25336.16671295 -.02545755  00000+0 -64352-1 0  9999", "line2": "2 66342  43.0008  46.5296 0001275 249.7778  48.1751 15.42822212  5234"}}, "geometry": {"type": "Point", "coordinates": [55.54934893604709, 9.389477311919524]}}]}